{"type": "FeatureCollection", "features": [ {"type": "Feature", "properties": {"norad_id": 34538, "name": "IRIDIUM 33 DEB", "group": "iridium-33-debris", "lat": -60.0390729763623, "lon": -174.50763578869143, "alt_km": 738.2824847694092, "timestamp": "2025-12-27T16:33:30.607240+00:00", "meta": {"OBJECT_NAME": "IRIDIUM 33 DEB", "OBJECT_ID": "1997-051JF", "EPOCH": "2025-12-27T11:09:27.620064", "MEAN_MOTION": 14.42736506, "ECCENTRICITY": 0.0031822, "INCLINATION": 86.2768, "RA_OF_ASC_NODE": 359.1048, "ARG_OF_PERICENTER": 276.7723, "MEAN_ANOMALY": 235.5728, "EPHEMERIS_TYPE": 0, "CLASSIFICATION_TYPE": "U", "NORAD_CAT_ID": 34538, "ELEMENT_SET_NO": 999, "REV_AT_EPOCH": 87968, "BSTAR": 0.001075, "MEAN_MOTION_DOT": 3.619e-05, "MEAN_MOTION_DDOT": 0}, "tle": {"line1": "1 34538U 97051JF  25361.46490301  .00003619  00000+0  10750-2 0  9992", "line2": "2 34538  86.2768 359.1048 0031822 276.7723 235.5728 14.42736506879680"}}, "geometry": {"type": "Point", "coordinates": [-174.50763578869143, -60.0390729763623]}}, {"type": "Feature", "properties": {"norad_id": 34540, "name": "IRIDIUM 33 DEB", "group": "iridium-33-debris", "lat": -79.57487323386067, "lon": 141.3002999553597, "alt_km": 661.8887727151805, "timestamp": "2025-12-27T16:33:30.607250+00:00", "meta": {"OBJECT_NAME": "IRIDIUM 33 DEB", "OBJECT_ID": "1997-051JH", "EPOCH": "2025-12-27T02:26:44.045952", "MEAN_MOTION": 14.75620073, "ECCENTRICITY": 0.00185605, "INCLINATION": 86.3108, "RA_OF_ASC_NODE": 301.0402, "ARG_OF_PERICENTER": 111.9699, "MEAN_ANOMALY": 266.3781, "EPHEMERIS_TYPE": 0, "CLASSIFICATION_TYPE": "U", "NORAD_CAT_ID": 34540, "ELEMENT_SET_NO": 999, "REV_AT_EPOCH": 89233, "BSTAR": 0.0019662624, "MEAN_MOTION_DOT": 0.00013489, "MEAN_MOTION_DDOT": 0}, "tle": {"line1": "1 34540U 97051JH  25361.10189868  .00013489  00000+0  19663-2 0  9997", "line2": "2 34540  86.3108 301.0402 0018560 111.9699 266.3781 14.75620073892333"}}, "geometry": {"type": "Point", "coordinates": [141.3002999553597, -79.57487323386067]}}, {"type": "Feature", "properties": {"norad_id": 34648, "name": "IRIDIUM 33 DEB", "group": "iridium-33-debris", "lat": -39.15783483950498, "lon": 98.85586846102458, "alt_km": 750.3934373617631, "timestamp": "2025-12-27T16:33:30.607260+00:00", "meta": {"OBJECT_NAME": "IRIDIUM 33 DEB", "OBJECT_ID": "1997-051JZ", "EPOCH": "2025-12-26T17:23:51.360000", "MEAN_MOTION": 14.11887507, "ECCENTRICITY": 0.01778864, "INCLINATION": 86.3901, "RA_OF_ASC_NODE": 276.2989, "ARG_OF_PERICENTER": 254.825, "MEAN_ANOMALY": 103.3201, "EPHEMERIS_TYPE": 0, "CLASSIFICATION_TYPE": "U", "NORAD_CAT_ID": 34648, "ELEMENT_SET_NO": 999, "REV_AT_EPOCH": 85158, "BSTAR": 0.0061458154, "MEAN_MOTION_DOT": 0.00013057, "MEAN_MOTION_DDOT": 0}, "tle": {"line1": "1 34648U 97051JZ  25360.72490000  .00013057  00000+0  61458-2 0  9996", "line2": "2 34648  86.3901 276.2989 0177886 254.8250 103.3201 14.11887507851589"}}, "geometry": {"type": "Point", "coordinates": [98.85586846102458, -39.15783483950498]}}, {"type": "Feature", "properties": {"norad_id": 34651, "name": "IRIDIUM 33 DEB", "group": "iridium-33-debris", "lat": -37.024193359072726, "lon": 131.40601940692017, "alt_km": 910.3660661868789, "timestamp": "2025-12-27T16:33:30.607270+00:00", "meta": {"OBJECT_NAME": "IRIDIUM 33 DEB", "OBJECT_ID": "1997-051KC", "EPOCH": "2025-12-25T15:53:57.959232", "MEAN_MOTION": 14.26027654, "ECCENTRICITY": 0.0142018, "INCLINATION": 86.2827, "RA_OF_ASC_NODE": 135.0795, "ARG_OF_PERICENTER": 163.1805, "MEAN_ANOMALY": 197.4168, "EPHEMERIS_TYPE": 0, "CLASSIFICATION_TYPE": "U", "NORAD_CAT_ID": 34651, "ELEMENT_SET_NO": 999, "REV_AT_EPOCH": 86080, "BSTAR": 0.0036817, "MEAN_MOTION_DOT": 9.797e-05, "MEAN_MOTION_DDOT": 0}, "tle": {"line1": "1 34651U 97051KC  25359.66247638  .00009797  00000+0  36817-2 0  9995", "line2": "2 34651  86.2827 135.0795 0142018 163.1805 197.4168 14.26027654860809"}}, "geometry": {"type": "Point", "coordinates": [131.40601940692017, -37.024193359072726]}}, {"type": "Feature", "properties": {"norad_id": 34652, "name": "IRIDIUM 33 DEB", "group": "iridium-33-debris", "lat": 21.657172241950565, "lon": 151.8848309951371, "alt_km": 684.3990150854816, "timestamp": "2025-12-27T16:33:30.607279+00:00", "meta": {"OBJECT_NAME": "IRIDIUM 33 DEB", "OBJECT_ID": "1997-051KD", "EPOCH": "2025-12-27T06:16:50.055744", "MEAN_MOTION": 14.62192281, "ECCENTRICITY": 0.0025503, "INCLINATION": 86.3321, "RA_OF_ASC_NODE": 333.535, "ARG_OF_PERICENTER": 244.7138, "MEAN_ANOMALY": 180.9757, "EPHEMERIS_TYPE": 0, "CLASSIFICATION_TYPE": "U", "NORAD_CAT_ID": 34652, "ELEMENT_SET_NO": 999, "REV_AT_EPOCH": 88696, "BSTAR": 0.0010804, "MEAN_MOTION_DOT": 5.485e-05, "MEAN_MOTION_DDOT": 0}, "tle": {"line1": "1 34652U 97051KD  25361.26169046  .00005485  00000+0  10804-2 0  9999", "line2": "2 34652  86.3321 333.5350 0025503 244.7138 180.9757 14.62192281886961"}}, "geometry": {"type": "Point", "coordinates": [151.8848309951371, 21.657172241950565]}}, {"type": "Feature", "properties": {"norad_id": 34690, "name": "IRIDIUM 33 DEB", "group": "iridium-33-debris", "lat": 4.888519425785145, "lon": 30.80321182226903, "alt_km": 705.428367786084, "timestamp": "2025-12-27T16:33:30.607289+00:00", "meta": {"OBJECT_NAME": "IRIDIUM 33 DEB", "OBJECT_ID": "1997-051KM", "EPOCH": "2025-12-26T19:53:36.427776", "MEAN_MOTION": 14.55146043, "ECCENTRICITY": 0.00092349, "INCLINATION": 86.3773, "RA_OF_ASC_NODE": 30.867, "ARG_OF_PERICENTER": 341.6712, "MEAN_ANOMALY": 195.6004, "EPHEMERIS_TYPE": 0, "CLASSIFICATION_TYPE": "U", "NORAD_CAT_ID": 34690, "ELEMENT_SET_NO": 999, "REV_AT_EPOCH": 88299, "BSTAR": 0.00044241179, "MEAN_MOTION_DOT": 1.932e-05, "MEAN_MOTION_DDOT": 0}, "tle": {"line1": "1 34690U 97051KM  25360.82889384  .00001932  00000+0  44241-3 0  9992", "line2": "2 34690  86.3773  30.8670 0009234 341.6712 195.6004 14.55146043882998"}}, "geometry": {"type": "Point", "coordinates": [30.80321182226903, 4.888519425785145]}}, {"type": "Feature", "properties": {"norad_id": 34693, "name": "IRIDIUM 33 DEB", "group": "iridium-33-debris", "lat": 75.31848458792773, "lon": 102.09734312395524, "alt_km": 461.97201697079436, "timestamp": "2025-12-27T16:33:30.607298+00:00", "meta": {"OBJECT_NAME": "IRIDIUM 33 DEB", "OBJECT_ID": "1997-051KQ", "EPOCH": "2025-12-26T19:48:57.228768", "MEAN_MOTION": 15.31583943, "ECCENTRICITY": 0.00088429, "INCLINATION": 86.3049, "RA_OF_ASC_NODE": 296.8095, "ARG_OF_PERICENTER": 29.7643, "MEAN_ANOMALY": 351.8395, "EPHEMERIS_TYPE": 0, "CLASSIFICATION_TYPE": "U", "NORAD_CAT_ID": 34693, "ELEMENT_SET_NO": 999, "REV_AT_EPOCH": 89130, "BSTAR": 0.005056928, "MEAN_MOTION_DOT": 0.00157281, "MEAN_MOTION_DDOT": 0}, "tle": {"line1": "1 34693U 97051KQ  25360.82566237  .00157281  00000+0  50569-2 0  9992", "line2": "2 34693  86.3049 296.8095 0008842  29.7643 351.8395 15.31583943891306"}}, "geometry": {"type": "Point", "coordinates": [102.09734312395524, 75.31848458792773]}}, {"type": "Feature", "properties": {"norad_id": 34696, "name": "IRIDIUM 33 DEB", "group": "iridium-33-debris", "lat": -22.21534363948811, "lon": 19.002961562249865, "alt_km": 719.2656922837505, "timestamp": "2025-12-27T16:33:30.607308+00:00", "meta": {"OBJECT_NAME": "IRIDIUM 33 DEB", "OBJECT_ID": "1997-051KT", "EPOCH": "2025-12-27T02:10:03.448416", "MEAN_MOTION": 14.65770071, "ECCENTRICITY": 0.00737714, "INCLINATION": 86.1861, "RA_OF_ASC_NODE": 20.8432, "ARG_OF_PERICENTER": 119.2353, "MEAN_ANOMALY": 297.1257, "EPHEMERIS_TYPE": 0, "CLASSIFICATION_TYPE": "U", "NORAD_CAT_ID": 34696, "ELEMENT_SET_NO": 999, "REV_AT_EPOCH": 86883, "BSTAR": 0.0050796435, "MEAN_MOTION_DOT": 0.00028933, "MEAN_MOTION_DDOT": 0}, "tle": {"line1": "1 34696U 97051KT  25361.09031769  .00028933  00000+0  50796-2 0  9995", "line2": "2 34696  86.1861  20.8432 0073771 119.2353 297.1257 14.65770071868832"}}, "geometry": {"type": "Point", "coordinates": [19.002961562249865, -22.21534363948811]}}, {"type": "Feature", "properties": {"norad_id": 34765, "name": "IRIDIUM 33 DEB", "group": "iridium-33-debris", "lat": -32.96034566337962, "lon": 23.96474669820494, "alt_km": 774.7798741733686, "timestamp": "2025-12-27T16:33:30.607318+00:00", "meta": {"OBJECT_NAME": "IRIDIUM 33 DEB", "OBJECT_ID": "1997-051LJ", "EPOCH": "2025-12-27T02:00:13.091040", "MEAN_MOTION": 14.40501375, "ECCENTRICITY": 0.00169933, "INCLINATION": 86.3377, "RA_OF_ASC_NODE": 26.6052, "ARG_OF_PERICENTER": 163.84, "MEAN_ANOMALY": 260.2304, "EPHEMERIS_TYPE": 0, "CLASSIFICATION_TYPE": "U", "NORAD_CAT_ID": 34765, "ELEMENT_SET_NO": 999, "REV_AT_EPOCH": 87820, "BSTAR": 0.00044425605, "MEAN_MOTION_DOT": 1.435e-05, "MEAN_MOTION_DDOT": 0}, "tle": {"line1": "1 34765U 97051LJ  25361.08348485  .00001435  00000+0  44426-3 0  9999", "line2": "2 34765  86.3377  26.6052 0016993 163.8400 260.2304 14.40501375878204"}}, "geometry": {"type": "Point", "coordinates": [23.96474669820494, -32.96034566337962]}}, {"type": "Feature", "properties": {"norad_id": 34833, "name": "IRIDIUM 33 DEB", "group": "iridium-33-debris", "lat": -6.345267648620324, "lon": 44.14755885615735, "alt_km": 713.6973061759909, "timestamp": "2025-12-27T16:33:30.607328+00:00", "meta": {"OBJECT_NAME": "IRIDIUM 33 DEB", "OBJECT_ID": "1997-051MH", "EPOCH": "2025-12-27T03:36:29.185920", "MEAN_MOTION": 14.52459738, "ECCENTRICITY": 0.00210883, "INCLINATION": 86.3923, "RA_OF_ASC_NODE": 44.7821, "ARG_OF_PERICENTER": 54.3467, "MEAN_ANOMALY": 359.944, "EPHEMERIS_TYPE": 0, "CLASSIFICATION_TYPE": "U", "NORAD_CAT_ID": 34833, "ELEMENT_SET_NO": 999, "REV_AT_EPOCH": 87924, "BSTAR": 0.00081313888, "MEAN_MOTION_DOT": 3.345e-05, "MEAN_MOTION_DDOT": 0}, "tle": {"line1": "1 34833U 97051MH  25361.15033780  .00003345  00000+0  81314-3 0  9991", "line2": "2 34833  86.3923  44.7821 0021088  54.3467 359.9440 14.52459738879240"}}, "geometry": {"type": "Point", "coordinates": [44.14755885615735, -6.345267648620324]}}]}